{
  "type": "FeatureCollection",
  "features": [
    {
      "type": "Feature",
      "properties": {
        "norad_id": 43260,
        "name": "GAOFEN-1 03",
        "group": "resource",
        "lat": -51.41584044693617,
        "lon": 47.16022855604523,
        "alt_km": 646.3464422506759,
        "timestamp": "2025-12-05T05:43:14.772011+00:00",
        "meta_object_name": "GAOFEN-1 03",
        "meta_object_id": "2018-031B",
        "meta_epoch": "2025-12-04T18:34:14.250720",
        "meta_mean_motion": 14.76411499,
        "meta_eccentricity": 0.0002536,
        "meta_inclination": 98.081,
        "meta_ra_of_asc_node": 36.4376,
        "meta_arg_of_pericenter": 353.9599,
        "meta_mean_anomaly": 6.1579,
        "meta_ephemeris_type": 0,
        "meta_classification_type": "U",
        "meta_norad_cat_id": 43260,
        "meta_element_set_no": 999,
        "meta_rev_at_epoch": 41400,
        "meta_bstar": 0.00028001,
        "meta_mean_motion_dot": 1.895e-05,
        "meta_mean_motion_ddot": 0,
        "tle_line1": "1 43260U 18031B   25338.77377605  .00001895  00000+0  28001-3 0  9997",
        "tle_line2": "2 43260  98.0810  36.4376 0002536 353.9599   6.1579 14.76411499414004"
      },
      "geometry": {
        "type": "Point",
        "coordinates": [
          47.16022855604523,
          -51.41584044693617
        ]
      }
    },
    {
      "type": "Feature",
      "properties": {
        "norad_id": 43262,
        "name": "GAOFEN-1 04",
        "group": "resource",
        "lat": 74.69346274901892,
        "lon": 5.793087089729815,
        "alt_km": 632.6330959326224,
        "timestamp": "2025-12-05T05:43:14.772021+00:00",
        "meta_object_name": "GAOFEN-1 04",
        "meta_object_id": "2018-031D",
        "meta_epoch": "2025-12-04T17:59:16.266048",
        "meta_mean_motion": 14.76424365,
        "meta_eccentricity": 0.0001302,
        "meta_inclination": 98.082,
        "meta_ra_of_asc_node": 36.5814,
        "meta_arg_of_pericenter": 61.7666,
        "meta_mean_anomaly": 298.3675,
        "meta_ephemeris_type": 0,
        "meta_classification_type": "U",
        "meta_norad_cat_id": 43262,
        "meta_element_set_no": 999,
        "meta_rev_at_epoch": 41399,
        "meta_bstar": 0.00027442,
        "meta_mean_motion_dot": 1.856e-05,
        "meta_mean_motion_ddot": 0,
        "tle_line1": "1 43262U 18031D   25338.74949382  .00001856  00000+0  27442-3 0  9998",
        "tle_line2": "2 43262  98.0820  36.5814 0001302  61.7666 298.3675 14.76424365413999"
      },
      "geometry": {
        "type": "Point",
        "coordinates": [
          5.793087089729815,
          74.69346274901892
        ]
      }
    },
    {
      "type": "Feature",
      "properties": {
        "norad_id": 43437,
        "name": "SENTINEL-3B",
        "group": "resource",
        "lat": 35.8891574423901,
        "lon": -129.1619685848946,
        "alt_km": 799.2706085716782,
        "timestamp": "2025-12-05T05:43:14.772036+00:00",
        "meta_object_name": "SENTINEL-3B",
        "meta_object_id": "2018-039A",
        "meta_epoch": "2025-12-04T15:35:07.443744",
        "meta_mean_motion": 14.26738162,
        "meta_eccentricity": 0.0001476,
        "meta_inclination": 98.6277,
        "meta_ra_of_asc_node": 43.9502,
        "meta_arg_of_pericenter": 110.5365,
        "meta_mean_anomaly": 249.5973,
        "meta_ephemeris_type": 0,
        "meta_classification_type": "U",
        "meta_norad_cat_id": 43437,
        "meta_element_set_no": 999,
        "meta_rev_at_epoch": 39638,
        "meta_bstar": 0.00015035,
        "meta_mean_motion_dot": 3.2e-06,
        "meta_mean_motion_ddot": 0,
        "tle_line1": "1 43437U 18039A   25338.64939171  .00000320  00000+0  15035-3 0  9994",
        "tle_line2": "2 43437  98.6277  43.9502 0001476 110.5365 249.5973 14.26738162396382"
      },
      "geometry": {
        "type": "Point",
        "coordinates": [
          -129.1619685848946,
          35.8891574423901
        ]
      }
    },
    {
      "type": "Feature",
      "properties": {
        "norad_id": 43461,
        "name": "GAOFEN-5 01",
        "group": "resource",
        "lat": -54.32806297549782,
        "lon": -46.00019163795095,
        "alt_km": 698.3745073042264,
        "timestamp": "2025-12-05T05:43:14.772047+00:00",
        "meta_object_name": "GAOFEN-5 01",
        "meta_object_id": "2018-043A",
        "meta_epoch": "2025-12-04T11:53:06.565632",
        "meta_mean_motion": 14.60395735,
        "meta_eccentricity": 0.0001499,
        "meta_inclination": 98.4313,
        "meta_ra_of_asc_node": 301.3191,
        "meta_arg_of_pericenter": 7.6077,
        "meta_mean_anomaly": 352.5145,
        "meta_ephemeris_type": 0,
        "meta_classification_type": "U",
        "meta_norad_cat_id": 43461,
        "meta_element_set_no": 999,
        "meta_rev_at_epoch": 40327,
        "meta_bstar": 0.00021847,
        "meta_mean_motion_dot": 1.009e-05,
        "meta_mean_motion_ddot": 0,
        "tle_line1": "1 43461U 18043A   25338.49521488  .00001009  00000+0  21847-3 0  9990",
        "tle_line2": "2 43461  98.4313 301.3191 0001499   7.6077 352.5145 14.60395735403270"
      },
      "geometry": {
        "type": "Point",
        "coordinates": [
          -46.00019163795095,
          -54.32806297549782
        ]
      }
    },
    {
      "type": "Feature",
      "properties": {
        "norad_id": 43484,
        "name": "GAOFEN-6",
        "group": "resource",
        "lat": -44.809041407583905,
        "lon": -144.07365661732425,
        "alt_km": 654.1084409111072,
        "timestamp": "2025-12-05T05:43:14.772057+00:00",
        "meta_object_name": "GAOFEN-6",
        "meta_object_id": "2018-048A",
        "meta_epoch": "2025-12-04T18:56:46.891968",
        "meta_mean_motion": 14.76543198,
        "meta_eccentricity": 0.0013312,
        "meta_inclination": 97.8042,
        "meta_ra_of_asc_node": 43.3227,
        "meta_arg_of_pericenter": 87.0633,
        "meta_mean_anomaly": 273.21,
        "meta_ephemeris_type": 0,
        "meta_classification_type": "U",
        "meta_norad_cat_id": 43484,
        "meta_element_set_no": 999,
        "meta_rev_at_epoch": 40470,
        "meta_bstar": 0.00011209,
        "meta_mean_motion_dot": 7.33e-06,
        "meta_mean_motion_ddot": 0,
        "tle_line1": "1 43484U 18048A   25338.78943162  .00000733  00000+0  11209-3 0  9993",
        "tle_line2": "2 43484  97.8042  43.3227 0013312  87.0633 273.2100 14.76543198404701"
      },
      "geometry": {
        "type": "Point",
        "coordinates": [
          -144.07365661732425,
          -44.809041407583905
        ]
      }
    },
    {
      "type": "Feature",
      "properties": {
        "norad_id": 43585,
        "name": "GAOFEN-11 01",
        "group": "resource",
        "lat": -56.374012215467936,
        "lon": -148.6545075538949,
        "alt_km": 428.1525640223881,
        "timestamp": "2025-12-05T05:43:14.772067+00:00",
        "meta_object_name": "GAOFEN-11 01",
        "meta_object_id": "2018-063A",
        "meta_epoch": "2025-12-04T17:50:48.433632",
        "meta_mean_motion": 15.48885726,
        "meta_eccentricity": 0.0004814,
        "meta_inclination": 97.1576,
        "meta_ra_of_asc_node": 41.747,
        "meta_arg_of_pericenter": 348.8228,
        "meta_mean_anomaly": 11.2916,
        "meta_ephemeris_type": 0,
        "meta_classification_type": "U",
        "meta_norad_cat_id": 43585,
        "meta_element_set_no": 999,
        "meta_rev_at_epoch": 41018,
        "meta_bstar": 0.00047926,
        "meta_mean_motion_dot": 0.00025797,
        "meta_mean_motion_ddot": 0,
        "tle_line1": "1 43585U 18063A   25338.74361613  .00025797  00000+0  47926-3 0  9995",
        "tle_line2": "2 43585  97.1576  41.7470 0004814 348.8228  11.2916 15.48885726410185"
      },
      "geometry": {
        "type": "Point",
        "coordinates": [
          -148.6545075538949,
          -56.374012215467936
        ]
      }
    },
    {
      "type": "Feature",
      "properties": {
        "norad_id": 43613,
        "name": "ICESAT-2",
        "group": "resource",
        "lat": 3.02518553789986,
        "lon": 58.818264788845035,
        "alt_km": 483.33852717884747,
        "timestamp": "2025-12-05T05:43:14.772077+00:00",
        "meta_object_name": "ICESAT-2",
        "meta_object_id": "2018-070A",
        "meta_epoch": "2025-12-04T16:22:39.575136",
        "meta_mean_motion": 15.28289414,
        "meta_eccentricity": 5.07e-05,
        "meta_inclination": 92.0056,
        "meta_ra_of_asc_node": 238.5621,
        "meta_arg_of_pericenter": 145.7146,
        "meta_mean_anomaly": 214.4136,
        "meta_ephemeris_type": 0,
        "meta_classification_type": "U",
        "meta_norad_cat_id": 43613,
        "meta_element_set_no": 999,
        "meta_rev_at_epoch": 40275,
        "meta_bstar": 0.00099762,
        "meta_mean_motion_dot": 0.00027537,
        "meta_mean_motion_ddot": 0,
        "tle_line1": "1 43613U 18070A   25338.68240249  .00027537  00000+0  99762-3 0  9998",
        "tle_line2": "2 43613  92.0056 238.5621 0000507 145.7146 214.4136 15.28289414402751"
      },
      "geometry": {
        "type": "Point",
        "coordinates": [
          58.818264788845035,
          3.02518553789986
        ]
      }
    }
  ]
}